QIANFAN-105             
1 66047U 25233Q   26013.11741441  .00000124  00000+0  89329-4 0  9994
2 66047  88.9935  58.7169 0013644 308.6958  51.2995 13.90528405 12359
QIANFAN-106             
1 66048U 25233R   26013.17533146  .00000083  00000+0  11224-3 0  9994
2 66048  88.9919  58.8808 0012892 304.8630  55.1308 13.50172453 12267
QIANFAN-107             
1 66049U 25233S   26013.18506955  .00000048  00000+0  56385-4 0  9993
2 66049  88.9936  58.8871 0009949 312.7277  47.3035 13.50956964 12268
QIANFAN-108             
1 66050U 25233T   26013.11125258  .00000063  00000+0  80409-4 0  9992
2 66050  88.9927  58.8934 0012496 310.8550  49.1517 13.49662633 12253
